OBJECT_NAME,OBJECT_ID,EPOCH,MEAN_MOTION,ECCENTRICITY,INCLINATION,RA_OF_ASC_NODE,ARG_OF_PERICENTER,MEAN_ANOMALY,EPHEMERIS_TYPE,CLASSIFICATION_TYPE,NORAD_CAT_ID,ELEMENT_SET_NO,REV_AT_EPOCH,BSTAR,MEAN_MOTION_DOT,MEAN_MOTION_DDOT
GAOFEN-3,2016-049A,2026-06-10T13:29:54.827232,14.42215193,.0001256,98.4015,169.4487,98.7289,261.4043,0,U,41727,999,51769,.68499E-4,.182E-5,0
SKYSAT-C4,2016-058B,2026-06-10T00:42:56.948256,15.48364658,.00008784,96.9183,183.1024,107.8953,252.2395,0,U,41771,999,54436,.3051392E-3,.16075E-3,0
SKYSAT-C5,2016-058C,2026-06-10T01:27:37.335456,15.34367885,.00018058,97.0478,202.0194,358.8078,1.3161,0,U,41772,999,54265,.22087954E-3,.7277E-4,0
SKYSAT-C2,2016-058D,2026-06-10T12:15:02.390976,15.41917987,.0005049,97.0175,183.8572,84.8111,275.3713,0,U,41773,999,54402,.25117E-3,.10602E-3,0
SKYSAT-C3,2016-058E,2026-06-10T01:16:02.854848,15.52233472,.00018491,96.9013,192.1762,83.2709,276.8755,0,U,41774,999,54500,.37703079E-3,.22814E-3,0
ALSAT-1B,2016-059C,2026-06-10T12:16:59.308320,14.72269227,.0007767,97.7755,170.5636,245.3486,114.6913,0,U,41785,999,51959,.32657E-4,.159E-5,0
PATHFINDER 1,2016-059E,2026-06-10T06:00:56.209248,14.67655209,.0027319,97.8166,160.8399,226.3952,133.4987,0,U,41787,999,51869,.95469E-4,.499E-5,0
SCATSAT 1,2016-059H,2026-06-10T10:48:18.188928,14.79511348,.0053251,98.1192,225.1467,269.7745,89.7364,0,U,41790,999,10059,.12447E-3,.895E-5,0
GOKTURK 1A,2016-073A,2026-06-10T11:22:10.523424,14.62769097,.0001459,98.1257,56.2529,78.1656,281.9710,0,U,41875,999,50784,.36934E-4,.142E-5,0
RESOURCESAT-2A,2016-074A,2026-06-10T12:36:22.027680,14.21615760,.0003363,98.7524,235.0841,96.1027,264.0533,0,U,41877,999,49335,.2125E-3,.422E-5,0
CARTOSAT-2D,2017-008A,2026-06-10T12:09:09.484128,15.19286302,.0003631,97.4113,220.9372,259.9144,100.1681,0,U,41948,999,51656,.29556E-3,.617E-4,0
SENTINEL-2B,2017-013A,2026-06-10T11:51:38.703744,14.30815443,.0001192,98.5688,236.3631,86.1471,273.9848,0,U,42063,999,48368,.80657E-4,.168E-5,0
CARTOSAT-2E,2017-036C,2026-06-10T12:34:31.071072,15.19270728,.0002853,97.4278,221.4365,350.6011,9.5170,0,U,42767,999,49713,.20389E-3,.4232E-4,0
FORMOSAT-5,2017-049A,2026-06-10T10:22:40.808064,14.50896322,.0012696,98.2253,236.8920,102.9309,257.3305,0,U,42920,999,46569,.40974E-4,.118E-5,0
SENTINEL-5P,2017-064A,2026-06-10T07:03:43.239744,14.19517839,.0001002,98.7924,103.4746,83.0542,277.0748,0,U,42969,999,44858,.3897E-4,.38E-6,0
SKYSAT-C11,2017-068A,2026-06-10T07:29:35.971296,15.57537859,.0000971,97.4342,309.8471,85.2551,274.8815,0,U,42987,999,48217,.36998E-3,.27182E-3,0
SKYSAT-C10,2017-068B,2026-06-10T07:33:59.306400,15.34521480,.0001209,97.4490,298.0970,92.0029,268.1352,0,U,42988,999,48130,.25807E-3,.855E-4,0
SKYSAT-C9,2017-068C,2026-06-09T21:41:06.223200,15.41381797,.00090565,97.4412,298.5468,156.3831,203.7833,0,U,42989,999,48163,.29895606E-3,.12419E-3,0
SKYSAT-C8,2017-068D,2026-06-10T02:26:26.341728,15.36837328,.00015436,97.4508,297.6541,97.9294,262.2125,0,U,42990,999,48122,.28141302E-3,.10052E-3,0
SKYSAT-C7,2017-068E,2026-06-09T15:20:34.080576,15.36775179,.00070425,97.4519,298.1747,128.7138,231.4737,0,U,42991,999,48121,.26870831E-3,.9581E-4,0
SKYSAT-C6,2017-068F,2026-06-10T07:09:22.027968,15.34091603,.0004066,97.4555,298.8371,155.8566,204.2868,0,U,42992,999,48126,.26293E-3,.8596E-4,0
CARTOSAT-2F,2018-004A,2026-06-10T11:45:42.232032,15.19162542,.0000385,97.4794,221.1899,282.5613,77.5578,0,U,43111,999,46631,.1708E-3,.3522E-4,0
GAOFEN-1 02,2018-031A,2026-06-10T12:30:50.320800,14.76471786,.0004237,98.0528,224.0671,48.3457,311.8115,0,U,43259,999,44171,.71612E-4,.447E-5,0
GAOFEN-1 03,2018-031B,2026-06-10T11:59:26.379168,14.76459350,.0003826,98.0525,223.9043,92.3877,267.7770,0,U,43260,999,44170,.90623E-4,.579E-5,0
GAOFEN-1 04,2018-031D,2026-06-10T13:02:02.974272,14.76471681,.0002268,98.0530,224.1377,89.1353,271.0116,0,U,43262,999,44170,.1726E-3,.115E-4,0
SENTINEL-3B,2018-039A,2026-06-10T10:58:24.691008,14.26739827,.0000829,98.6248,229.0859,79.8812,280.2462,0,U,43437,999,42316,.50996E-4,.8E-6,0
GAOFEN-5 01,2018-043A,2026-06-10T11:38:43.523808,14.60600817,.0003035,98.4566,132.9309,95.4854,264.6692,0,U,43461,999,43071,.68715E-4,.285E-5,0
GAOFEN-6,2018-048A,2026-06-09T01:47:54.508416,14.76624229,.0011378,97.7757,223.0567,194.8499,165.2379,0,U,43484,999,43219,.12207314E-3,.804E-5,0
GAOFEN-11 01,2018-063A,2026-06-10T13:06:14.393952,15.55102688,.0003946,97.1295,228.4452,22.4917,337.6510,0,U,43585,999,43931,.28594E-3,.19168E-3,0
ICESAT-2,2018-070A,2026-06-10T11:25:34.741056,15.28297942,.0005403,92.0066,289.1669,114.8185,245.3626,0,U,43613,999,43143,.31171E-3,.8593E-4,0
