GAOFEN-3                
1 41727U 16049A   26161.56244013  .00000182  00000+0  68499-4 0  9992
2 41727  98.4015 169.4487 0001256  98.7289 261.4043 14.42215193517696
SKYSAT-C4               
1 41771U 16058B   26161.02982579  .00016075  00000+0  30514-3 0  9992
2 41771  96.9183 183.1024 0000878 107.8953 252.2395 15.48364658544363
SKYSAT-C5               
1 41772U 16058C   26161.06084879  .00007277  00000+0  22088-3 0  9994
2 41772  97.0478 202.0194 0001805 358.8078   1.3161 15.34367885542653
SKYSAT-C2               
1 41773U 16058D   26161.51044434  .00010602  00000+0  25117-3 0  9990
2 41773  97.0175 183.8572 0005049  84.8111 275.3713 15.41917987544023
SKYSAT-C3               
1 41774U 16058E   26161.05281082  .00022814  00000+0  37703-3 0  9994
2 41774  96.9013 192.1762 0001849  83.2709 276.8755 15.52233472545000
ALSAT-1B                
1 41785U 16059C   26161.51179755  .00000159  00000+0  32657-4 0  9993
2 41785  97.7755 170.5636 0007767 245.3486 114.6913 14.72269227519590
PATHFINDER 1            
1 41787U 16059E   26161.25065057  .00000499  00000+0  95469-4 0  9992
2 41787  97.8166 160.8399 0027319 226.3952 133.4987 14.67655209518692
SCATSAT 1               
1 41790U 16059H   26161.45021052  .00000895  00000+0  12447-3 0  9999
2 41790  98.1192 225.1467 0053251 269.7745  89.7364 14.79511348100591
GOKTURK 1A              
1 41875U 16073A   26161.47373291  .00000142  00000+0  36934-4 0  9999
2 41875  98.1257  56.2529 0001459  78.1656 281.9710 14.62769097507843
RESOURCESAT-2A          
1 41877U 16074A   26161.52525495  .00000422  00000+0  21250-3 0  9998
2 41877  98.7524 235.0841 0003363  96.1027 264.0533 14.21615760493357
CARTOSAT-2D             
1 41948U 17008A   26161.50635977  .00006170  00000+0  29556-3 0  9993
2 41948  97.4113 220.9372 0003631 259.9144 100.1681 15.19286302516562
SENTINEL-2B             
1 42063U 17013A   26161.49419796  .00000168  00000+0  80657-4 0  9996
2 42063  98.5688 236.3631 0001192  86.1471 273.9848 14.30815443483688
CARTOSAT-2E             
1 42767U 17036C   26161.52397073  .00004232  00000+0  20389-3 0  9990
2 42767  97.4278 221.4365 0002853 350.6011   9.5170 15.19270728497130
FORMOSAT-5              
1 42920U 17049A   26161.43241676  .00000118  00000+0  40974-4 0  9994
2 42920  98.2253 236.8920 0012696 102.9309 257.3305 14.50896322465691
SENTINEL-5P             
1 42969U 17064A   26161.29425046  .00000038  00000+0  38970-4 0  9997
2 42969  98.7924 103.4746 0001002  83.0542 277.0748 14.19517839448583
SKYSAT-C11              
1 42987U 17068A   26161.31222189  .00027182  00000+0  36998-3 0  9993
2 42987  97.4342 309.8471 0000971  85.2551 274.8815 15.57537859482178
SKYSAT-C10              
1 42988U 17068B   26161.31526975  .00008550  00000+0  25807-3 0  9999
2 42988  97.4490 298.0970 0001209  92.0029 268.1352 15.34521480481301
SKYSAT-C9               
1 42989U 17068C   26160.90354425  .00012419  00000+0  29896-3 0  9994
2 42989  97.4412 298.5468 0009056 156.3831 203.7833 15.41381797481634
SKYSAT-C8               
1 42990U 17068D   26161.10169377  .00010052  00000+0  28141-3 0  9992
2 42990  97.4508 297.6541 0001543  97.9294 262.2125 15.36837328481229
SKYSAT-C7               
1 42991U 17068E   26160.63928334  .00009581  00000+0  26871-3 0  9999
2 42991  97.4519 298.1747 0007042 128.7138 231.4737 15.36775179481217
SKYSAT-C6               
1 42992U 17068F   26161.29817162  .00008596  00000+0  26293-3 0  9992
2 42992  97.4555 298.8371 0004066 155.8566 204.2868 15.34091603481266
CARTOSAT-2F             
1 43111U 18004A   26161.49007213  .00003522  00000+0  17080-3 0  9995
2 43111  97.4794 221.1899 0000385 282.5613  77.5578 15.19162542466312
GAOFEN-1 02             
1 43259U 18031A   26161.52141575  .00000447  00000+0  71612-4 0  9997
2 43259  98.0528 224.0671 0004237  48.3457 311.8115 14.76471786441714
GAOFEN-1 03             
1 43260U 18031B   26161.49961087  .00000579  00000+0  90623-4 0  9992
2 43260  98.0525 223.9043 0003826  92.3877 267.7770 14.76459350441700
GAOFEN-1 04             
1 43262U 18031D   26161.54308998  .00001150  00000+0  17260-3 0  9997
2 43262  98.0530 224.1377 0002268  89.1353 271.0116 14.76471681441706
SENTINEL-3B             
1 43437U 18039A   26161.45723022  .00000080  00000+0  50996-4 0  9993
2 43437  98.6248 229.0859 0000829  79.8812 280.2462 14.26739827423168
GAOFEN-5 01             
1 43461U 18043A   26161.48522597  .00000285  00000+0  68715-4 0  9997
2 43461  98.4566 132.9309 0003035  95.4854 264.6692 14.60600817430714
GAOFEN-6                
1 43484U 18048A   26160.07493644  .00000804  00000+0  12207-3 0  9992
2 43484  97.7757 223.0567 0011378 194.8499 165.2379 14.76624229432191
GAOFEN-11 01            
1 43585U 18063A   26161.54599993  .00019168  00000+0  28594-3 0  9997
2 43585  97.1295 228.4452 0003946  22.4917 337.6510 15.55102688439310
ICESAT-2                
1 43613U 18070A   26161.47609654  .00008593  00000+0  31171-3 0  9990
2 43613  92.0066 289.1669 0005403 114.8185 245.3626 15.28297942431435
